IRIDIUM 119             
1 42959U 17061E   24259.48891464  .00000083  00000+0  22523-4 0  9998
2 42959  86.3932 292.5710 0001904  92.6468 267.4946 14.34221204363123
IRIDIUM 107             
1 42960U 17061F   24259.85678963  .00000443  00000+0  15097-3 0  9995
2 42960  86.3928 292.4344 0002031  97.4606 262.6821 14.34217090363184
IRIDIUM 132             
1 42961U 17061G   24259.51428408  .00001071  00000+0  37546-3 0  9997
2 42961  86.3929 292.5624 0001935 101.3481 258.7933 14.34214620363137
IRIDIUM 136             
1 42962U 17061H   24259.47623111  .00000133  00000+0  40349-4 0  9995
2 42962  86.3925 292.5812 0002075  90.1821 269.9613 14.34219931363142
IRIDIUM 139             
1 42963U 17061J   24259.34303467  .00000870  00000+0  30338-3 0  9995
2 42963  86.3930 292.6886 0001880  99.7532 260.3876 14.34221189363131
IRIDIUM 125             
1 42964U 17061K   24259.81873387  .00000833  00000+0  29037-3 0  9994
2 42964  86.3932 292.5389 0001645  86.1937 273.9447 14.34215925363213
IRIDIUM 135             
1 43070U 17083A   24259.93238827  .00001173  00000+0  41191-3 0  9997
2 43070  86.3965 229.1237 0002691  89.6120 270.5384 14.34213334352527
IRIDIUM 138             
1 43071U 17083B   24259.46938016  .00000388  00000+0  13153-3 0  9997
2 43071  86.3945 229.0238 0002130  77.1843 282.9590 14.34217435352441
